LAPAN-A2                
1 40931U 15052B   19139.96777004 -.00000245  00000-0 -12379-3 0  9991
2 40931   5.9965 268.5989 0015469 119.3214 240.8665 14.76593972196860
